STARLINK-37600          
1 69359U 26123G   26178.19460314  .00283763  00000+0  17860-2 0  9990
2 69359  53.1568 192.0469 0000798 124.6625 235.4471 15.75339869  3615
STARLINK-37599          
1 69360U 26123H   26178.21017723  .00510250  00000+0  24176-2 0  9999
2 69360  53.1554 191.4117 0001334 150.9177 209.1920 15.81065076  3627
STARLINK-37039          
1 69361U 26123J   26177.91668980 -.00003986  00000+0 -21847-4 0  9992
2 69361  53.1591 193.1596 0001334 105.2565 248.5490 15.75229997  4721
STARLINK-37040          
1 69362U 26123K   26178.19580774  .00396077  00000+0  19067-2 0  9991
2 69362  53.1563 191.3144 0000967 145.5849 214.5237 15.81019929  3622
STARLINK-37582          
1 69363U 26123L   26177.55106882  .00167516  00000+0  10733-2 0  9990
2 69363  53.1566 195.1393 0001040 105.9524 254.1611 15.75283974  3517
STARLINK-37309          
1 69364U 26123M   26178.16670139 -.00060176  00000+0 -39081-3 0  9994
2 69364  53.1587 191.4974 0001199  88.0787  88.5015 15.75259961  4902
STARLINK-37436          
1 69365U 26123N   26177.67677518  .00205572  00000+0  10169-2 0  9992
2 69365  53.1568 193.7603 0001489  57.6167 302.4999 15.80949109  3546
STARLINK-37581          
1 69366U 26123P   26178.18628661  .00453722  00000+0  21659-2 0  9993
2 69366  53.1559 191.2498 0001383 146.6913 213.4197 15.81051109  3628
STARLINK-37683          
1 69367U 26123Q   26178.21687594  .00314161  00000+0  19683-2 0  9995
2 69367  53.1571 191.4536 0001467 128.1050 232.0103 15.75356304  3620
STARLINK-37687          
1 69368U 26123R   26177.67231190  .00179255  00000+0  88989-3 0  9991
2 69368  53.1568 193.7300 0001015 112.1176 247.9955 15.80948962  3546
STARLINK-37631          
1 69369U 26123S   26178.16670139 -.00260285  00000+0 -17366-2 0  9993
2 69369  53.1592 191.2843 0000969  75.4572 204.0952 15.75368873  4810
STARLINK-37673          
1 69370U 26123T   26177.31534346  .00320813  00000+0  20111-2 0  9994
2 69370  53.1593 195.7792 0002009 110.3785 249.7451 15.75324720  3482
STARLINK-37645          
1 69371U 26123U   26178.16670139 -.00079036  00000+0 -51552-3 0  9994
2 69371  53.1586 191.3896 0001082  91.4704 136.6163 15.75270490  4818
STARLINK-37688          
1 69372U 26123V   26177.91668980 -.01829964  00000+0 -10456-1 0  9998
2 69372  53.1564 192.4981 0000748  74.6085 239.0310 15.81092989  4774
STARLINK-37685          
1 69373U 26123W   26177.67146487  .00175898  00000+0  87419-3 0  9997
2 69373  53.1558 193.7221 0000970  91.4278 268.6856 15.80934943  3548
STARLINK-37632          
1 69374U 26123X   26177.54428876  .00222877  00000+0  10995-2 0  9993
2 69374  53.1557 194.3481 0001047 129.3211 230.7905 15.80957738  3527
STARLINK-37454          
1 69375U 26123Y   26177.66962735  .00159606  00000+0  79451-3 0  9996
2 69375  53.1562 193.7094 0000744 116.1437 243.9663 15.80949577  3545
STARLINK-37485          
1 69376U 26123Z   26178.16670139 -.00092224  00000+0 -60297-3 0  9999
2 69376  53.1583 191.3309 0001139  94.9122 160.7601 15.75278249  4909
STARLINK-37439          
1 69377U 26123AA  26177.53533394  .00256741  00000+0  12608-2 0  9997
2 69377  53.1557 194.2888 0001010 107.3490 252.7644 15.80962315  3526
STARLINK-37376          
1 69378U 26123AB  26178.20326042  .00204515  00000+0  13047-2 0  9993
2 69378  53.1590 191.3594 0000512  51.5097 308.5969 15.75266641  3629
STARLINK-37383          
1 69379U 26123AC  26178.16670139 -.00066266  00000+0 -43099-3 0  9990
2 69379  53.1595 191.1200 0001283  91.7466 265.1044 15.75265516  4903
STARLINK-37411          
1 69380U 26123AD  26177.53669194  .00286855  00000+0  14016-2 0  9993
2 69380  53.1557 194.2965 0000818 117.5075 242.6031 15.80988562  3523
STARLINK-37427          
1 69381U 26123AE  26178.16670139  .00003647  00000+0  22010-4 0  9996
2 69381  53.1568 191.0913 0001136 107.5122 263.5352 15.80873105  4817
QIANFAN-165             
1 69382U 26124A   26178.15011110  .00000123  00000+0  55336-4 0  9998
2 69382  88.9984   0.9138 0003517 107.6606 252.4966 14.16013933  3221
QIANFAN-166             
1 69383U 26124B   26178.20891172  .00000111  00000+0  47920-4 0  9996
2 69383  88.9985   0.9043 0003007 102.2113 257.9412 14.17061148  3235
QIANFAN-167             
1 69384U 26124C   26178.21286259  .00000102  00000+0  43979-4 0  9992
2 69384  88.9984   0.9046 0003072 140.4988 219.6425 14.16527432  3235
QIANFAN-168             
1 69385U 26124D   26178.19962323  .00000105  00000+0  44192-4 0  9994
2 69385  88.9984   0.9027 0003849 117.2905 242.8676 14.17874391  3234
QIANFAN-169             
1 69386U 26124E   26178.19433007  .00000113  00000+0  47873-4 0  9995
2 69386  88.9984   0.9018 0004180 131.9069 228.2478 14.18288147  3235
QIANFAN-170             
1 69387U 26124F   26178.18541191  .00000102  00000+0  41702-4 0  9992
2 69387  88.9983   0.9004 0003718 113.3298 246.8283 14.19184917  3235
QIANFAN-171             
1 69388U 26124G   26178.17624891  .00000111  00000+0  45163-4 0  9996
2 69388  88.9984   0.8991 0003254 153.0576 207.0783 14.20069037  3237
