OBJECT_NAME,OBJECT_ID,EPOCH,MEAN_MOTION,ECCENTRICITY,INCLINATION,RA_OF_ASC_NODE,ARG_OF_PERICENTER,MEAN_ANOMALY,EPHEMERIS_TYPE,CLASSIFICATION_TYPE,NORAD_CAT_ID,ELEMENT_SET_NO,REV_AT_EPOCH,BSTAR,MEAN_MOTION_DOT,MEAN_MOTION_DDOT
STARLINK-37600,2026-123G,2026-06-27T04:40:13.711296,15.75339869,.0000798,53.1568,192.0469,124.6625,235.4471,0,U,69359,999,361,.1786E-2,.283763E-2,0
STARLINK-37599,2026-123H,2026-06-27T05:02:39.312672,15.81065076,.0001334,53.1554,191.4117,150.9177,209.1920,0,U,69360,999,362,.24176E-2,.51025E-2,0
STARLINK-37039,2026-123J,2026-06-26T22:00:01.998720,15.75229997,.0001334,53.1591,193.1596,105.2565,248.5490,0,U,69361,999,472,-.21847E-4,-.3986E-4,0
STARLINK-37040,2026-123K,2026-06-27T04:41:57.788736,15.81019929,.0000967,53.1563,191.3144,145.5849,214.5237,0,U,69362,999,362,.19067E-2,.396077E-2,0
STARLINK-37582,2026-123L,2026-06-26T13:13:32.346048,15.75283974,.000104,53.1566,195.1393,105.9524,254.1611,0,U,69363,999,351,.10733E-2,.167516E-2,0
STARLINK-37309,2026-123M,2026-06-27T04:00:03.000096,15.75259961,.0001199,53.1587,191.4974,88.0787,88.5015,0,U,69364,999,490,-.39081E-3,-.60176E-3,0
STARLINK-37436,2026-123N,2026-06-26T16:14:33.375552,15.80949109,.00014896,53.1568,193.7603,57.6167,302.4999,0,U,69365,999,354,.10168866E-2,.205572E-2,0
STARLINK-37581,2026-123P,2026-06-27T04:28:15.163104,15.81051109,.0001383,53.1559,191.2498,146.6913,213.4197,0,U,69366,999,362,.21659E-2,.453722E-2,0
STARLINK-37683,2026-123Q,2026-06-27T05:12:18.081216,15.75356304,.0001467,53.1571,191.4536,128.1050,232.0103,0,U,69367,999,362,.19683E-2,.314161E-2,0
STARLINK-37687,2026-123R,2026-06-26T16:08:07.748160,15.80948962,.0001015,53.1568,193.7300,112.1176,247.9955,0,U,69368,999,354,.88988699E-3,.179255E-2,0
STARLINK-37631,2026-123S,2026-06-27T04:00:03.000096,15.75368873,.0000969,53.1592,191.2843,75.4572,204.0952,0,U,69369,999,481,-.17366E-2,-.260285E-2,0
STARLINK-37673,2026-123T,2026-06-26T07:34:05.674944,15.75324720,.0002009,53.1593,195.7792,110.3785,249.7451,0,U,69370,999,348,.20111E-2,.320813E-2,0
STARLINK-37645,2026-123U,2026-06-27T04:00:03.000096,15.75270490,.0001082,53.1586,191.3896,91.4704,136.6163,0,U,69371,999,481,-.51552E-3,-.79036E-3,0
STARLINK-37688,2026-123V,2026-06-26T22:00:01.998720,15.81092989,.0000748,53.1564,192.4981,74.6085,239.0310,0,U,69372,999,477,-.10456E-1,-.1829964E-1,0
STARLINK-37685,2026-123W,2026-06-26T16:06:54.564768,15.80934943,.00009705,53.1558,193.7221,91.4278,268.6856,0,U,69373,999,354,.87419033E-3,.175898E-2,0
STARLINK-37632,2026-123X,2026-06-26T13:03:46.548864,15.80957738,.0001047,53.1557,194.3481,129.3211,230.7905,0,U,69374,999,352,.10995E-2,.222877E-2,0
STARLINK-37454,2026-123Y,2026-06-26T16:04:15.803040,15.80949577,.00007442,53.1562,193.7094,116.1437,243.9663,0,U,69375,999,354,.79451247E-3,.159606E-2,0
STARLINK-37485,2026-123Z,2026-06-27T04:00:03.000096,15.75278249,.0001139,53.1583,191.3309,94.9122,160.7601,0,U,69376,999,490,-.60297E-3,-.92224E-3,0
STARLINK-37439,2026-123AA,2026-06-26T12:50:52.852416,15.80962315,.000101,53.1557,194.2888,107.3490,252.7644,0,U,69377,999,352,.12608E-2,.256741E-2,0
STARLINK-37376,2026-123AB,2026-06-27T04:52:41.700288,15.75266641,.0000512,53.1590,191.3594,51.5097,308.5969,0,U,69378,999,362,.13047E-2,.204515E-2,0
STARLINK-37383,2026-123AC,2026-06-27T04:00:03.000096,15.75265516,.0001283,53.1595,191.1200,91.7466,265.1044,0,U,69379,999,490,-.43099E-3,-.66266E-3,0
STARLINK-37411,2026-123AD,2026-06-26T12:52:50.183616,15.80988562,.0000818,53.1557,194.2965,117.5075,242.6031,0,U,69380,999,352,.14016E-2,.286855E-2,0
STARLINK-37427,2026-123AE,2026-06-27T04:00:03.000096,15.80873105,.0001136,53.1568,191.0913,107.5122,263.5352,0,U,69381,999,481,.2201E-4,.3647E-4,0
QIANFAN-165,2026-124A,2026-06-27T03:36:09.599040,14.16013933,.0003517,88.9984,0.9138,107.6606,252.4966,0,U,69382,999,322,.55336E-4,.123E-5,0
QIANFAN-166,2026-124B,2026-06-27T05:00:49.972608,14.17061148,.0003007,88.9985,0.9043,102.2113,257.9412,0,U,69383,999,323,.4792E-4,.111E-5,0
QIANFAN-167,2026-124C,2026-06-27T05:06:31.327776,14.16527432,.0003072,88.9984,0.9046,140.4988,219.6425,0,U,69384,999,323,.43979E-4,.102E-5,0
QIANFAN-168,2026-124D,2026-06-27T04:47:27.447072,14.17874391,.0003849,88.9984,0.9027,117.2905,242.8676,0,U,69385,999,323,.44192E-4,.105E-5,0
QIANFAN-169,2026-124E,2026-06-27T04:39:50.118048,14.18288147,.000418,88.9984,0.9018,131.9069,228.2478,0,U,69386,999,323,.47873E-4,.113E-5,0
QIANFAN-170,2026-124F,2026-06-27T04:26:59.589024,14.19184917,.0003718,88.9983,0.9004,113.3298,246.8283,0,U,69387,999,323,.41702E-4,.102E-5,0
QIANFAN-171,2026-124G,2026-06-27T04:13:47.905824,14.20069037,.0003254,88.9984,0.8991,153.0576,207.0783,0,U,69388,999,323,.45163E-4,.111E-5,0
